{
  "type": "FeatureCollection",
  "features": [
    {
      "type": "Feature",
      "properties": {
        "norad_id": 33886,
        "name": "IRIDIUM 33 DEB",
        "group": "iridium-33-debris",
        "lat": 0.1824164401763473,
        "lon": 63.16887770787615,
        "alt_km": 782.9557851859572,
        "timestamp": "2025-12-22T09:53:37.785364+00:00",
        "meta_object_name": "IRIDIUM 33 DEB",
        "meta_object_id": "1997-051BF",
        "meta_epoch": "2025-12-22T03:17:14.951040",
        "meta_mean_motion": 14.36062316,
        "meta_eccentricity": 0.0013155,
        "meta_inclination": 86.3821,
        "meta_ra_of_asc_node": 63.2732,
        "meta_arg_of_pericenter": 208.0761,
        "meta_mean_anomaly": 169.9907,
        "meta_ephemeris_type": 0,
        "meta_classification_type": "U",
        "meta_norad_cat_id": 33886,
        "meta_element_set_no": 999,
        "meta_rev_at_epoch": 88187,
        "meta_bstar": 0.00017077,
        "meta_mean_motion_dot": 5.16e-06,
        "meta_mean_motion_ddot": 0,
        "tle_line1": "1 33886U 97051BF  25356.13697860  .00000516  00000+0  17077-3 0  9997",
        "tle_line2": "2 33886  86.3821  63.2732 0013155 208.0761 169.9907 14.36062316881875"
      },
      "geometry": {
        "type": "Point",
        "coordinates": [
          63.16887770787615,
          0.1824164401763473
        ]
      }
    },
    {
      "type": "Feature",
      "properties": {
        "norad_id": 33887,
        "name": "IRIDIUM 33 DEB",
        "group": "iridium-33-debris",
        "lat": -22.917509752506046,
        "lon": -2.3422269126126887,
        "alt_km": 776.450497820686,
        "timestamp": "2025-12-22T09:53:37.785374+00:00",
        "meta_object_name": "IRIDIUM 33 DEB",
        "meta_object_id": "1997-051BG",
        "meta_epoch": "2025-12-21T18:06:57.603168",
        "meta_mean_motion": 14.37228506,
        "meta_eccentricity": 0.0005394,
        "meta_inclination": 86.3041,
        "meta_ra_of_asc_node": 359.5069,
        "meta_arg_of_pericenter": 190.9714,
        "meta_mean_anomaly": 346.844,
        "meta_ephemeris_type": 0,
        "meta_classification_type": "U",
        "meta_norad_cat_id": 33887,
        "meta_element_set_no": 999,
        "meta_rev_at_epoch": 88294,
        "meta_bstar": 0.00011881,
        "meta_mean_motion_dot": 3.73e-06,
        "meta_mean_motion_ddot": 0,
        "tle_line1": "1 33887U 97051BG  25355.75483337  .00000373  00000+0  11881-3 0  9995",
        "tle_line2": "2 33887  86.3041 359.5069 0005394 190.9714 346.8440 14.37228506882940"
      },
      "geometry": {
        "type": "Point",
        "coordinates": [
          -2.3422269126126887,
          -22.917509752506046
        ]
      }
    },
    {
      "type": "Feature",
      "properties": {
        "norad_id": 33953,
        "name": "IRIDIUM 33 DEB",
        "group": "iridium-33-debris",
        "lat": 75.91822036397559,
        "lon": -145.02197273977723,
        "alt_km": 690.0262299616525,
        "timestamp": "2025-12-22T09:53:37.785385+00:00",
        "meta_object_name": "IRIDIUM 33 DEB",
        "meta_object_id": "1997-051BN",
        "meta_epoch": "2025-12-22T04:44:25.619136",
        "meta_mean_motion": 14.55406947,
        "meta_eccentricity": 0.0017835,
        "meta_inclination": 86.3836,
        "meta_ra_of_asc_node": 49.6744,
        "meta_arg_of_pericenter": 73.9809,
        "meta_mean_anomaly": 345.1929,
        "meta_ephemeris_type": 0,
        "meta_classification_type": "U",
        "meta_norad_cat_id": 33953,
        "meta_element_set_no": 999,
        "meta_rev_at_epoch": 88441,
        "meta_bstar": 0.0010995,
        "meta_mean_motion_dot": 4.805e-05,
        "meta_mean_motion_ddot": 0,
        "tle_line1": "1 33953U 97051BN  25356.19751874  .00004805  00000+0  10995-2 0  9990",
        "tle_line2": "2 33953  86.3836  49.6744 0017835  73.9809 345.1929 14.55406947884416"
      },
      "geometry": {
        "type": "Point",
        "coordinates": [
          -145.02197273977723,
          75.91822036397559
        ]
      }
    },
    {
      "type": "Feature",
      "properties": {
        "norad_id": 33960,
        "name": "IRIDIUM 33 DEB",
        "group": "iridium-33-debris",
        "lat": -52.81636390999863,
        "lon": 109.90638460080828,
        "alt_km": 623.7355564659583,
        "timestamp": "2025-12-22T09:53:37.785395+00:00",
        "meta_object_name": "IRIDIUM 33 DEB",
        "meta_object_id": "1997-051BV",
        "meta_epoch": "2025-12-21T20:10:45.329088",
        "meta_mean_motion": 14.85604614,
        "meta_eccentricity": 0.00073,
        "meta_inclination": 86.2546,
        "meta_ra_of_asc_node": 285.222,
        "meta_arg_of_pericenter": 45.5917,
        "meta_mean_anomaly": 13.1513,
        "meta_ephemeris_type": 0,
        "meta_classification_type": "U",
        "meta_norad_cat_id": 33960,
        "meta_element_set_no": 999,
        "meta_rev_at_epoch": 89002,
        "meta_bstar": 0.002534,
        "meta_mean_motion_dot": 0.00022006,
        "meta_mean_motion_ddot": 0,
        "tle_line1": "1 33960U 97051BV  25355.84080242  .00022006  00000+0  25340-2 0  9996",
        "tle_line2": "2 33960  86.2546 285.2220 0007300  45.5917  13.1513 14.85604614890028"
      },
      "geometry": {
        "type": "Point",
        "coordinates": [
          109.90638460080828,
          -52.81636390999863
        ]
      }
    },
    {
      "type": "Feature",
      "properties": {
        "norad_id": 33966,
        "name": "IRIDIUM 33 DEB",
        "group": "iridium-33-debris",
        "lat": 29.11234652260235,
        "lon": 43.88996022654771,
        "alt_km": 729.279661379147,
        "timestamp": "2025-12-22T09:53:37.785405+00:00",
        "meta_object_name": "IRIDIUM 33 DEB",
        "meta_object_id": "1997-051CB",
        "meta_epoch": "2025-12-21T21:18:13.269312",
        "meta_mean_motion": 14.49628063,
        "meta_eccentricity": 0.0008431,
        "meta_inclination": 86.3913,
        "meta_ra_of_asc_node": 42.1011,
        "meta_arg_of_pericenter": 159.4641,
        "meta_mean_anomaly": 13.9867,
        "meta_ephemeris_type": 0,
        "meta_classification_type": "U",
        "meta_norad_cat_id": 33966,
        "meta_element_set_no": 999,
        "meta_rev_at_epoch": 88574,
        "meta_bstar": 0.00044961,
        "meta_mean_motion_dot": 1.747e-05,
        "meta_mean_motion_ddot": 0,
        "tle_line1": "1 33966U 97051CB  25355.88765358  .00001747  00000+0  44961-3 0  9994",
        "tle_line2": "2 33966  86.3913  42.1011 0008431 159.4641  13.9867 14.49628063885743"
      },
      "geometry": {
        "type": "Point",
        "coordinates": [
          43.88996022654771,
          29.11234652260235
        ]
      }
    },
    {
      "type": "Feature",
      "properties": {
        "norad_id": 34071,
        "name": "IRIDIUM 33 DEB",
        "group": "iridium-33-debris",
        "lat": 86.1020003964254,
        "lon": 123.880528438919,
        "alt_km": 712.8507039101987,
        "timestamp": "2025-12-22T09:53:37.785415+00:00",
        "meta_object_name": "IRIDIUM 33 DEB",
        "meta_object_id": "1997-051CE",
        "meta_epoch": "2025-12-22T02:50:50.639424",
        "meta_mean_motion": 14.49504105,
        "meta_eccentricity": 0.0009918,
        "meta_inclination": 86.3448,
        "meta_ra_of_asc_node": 13.7514,
        "meta_arg_of_pericenter": 82.3168,
        "meta_mean_anomaly": 277.9162,
        "meta_ephemeris_type": 0,
        "meta_classification_type": "U",
        "meta_norad_cat_id": 34071,
        "meta_element_set_no": 999,
        "meta_rev_at_epoch": 88470,
        "meta_bstar": 0.00053057,
        "meta_mean_motion_dot": 2.053e-05,
        "meta_mean_motion_ddot": 0,
        "tle_line1": "1 34071U 97051CE  25356.11864166  .00002053  00000+0  53057-3 0  9993",
        "tle_line2": "2 34071  86.3448  13.7514 0009918  82.3168 277.9162 14.49504105884700"
      },
      "geometry": {
        "type": "Point",
        "coordinates": [
          123.880528438919,
          86.1020003964254
        ]
      }
    },
    {
      "type": "Feature",
      "properties": {
        "norad_id": 34077,
        "name": "IRIDIUM 33 DEB",
        "group": "iridium-33-debris",
        "lat": 70.28697108293557,
        "lon": -142.91687693499986,
        "alt_km": 671.8177447411499,
        "timestamp": "2025-12-22T09:53:37.785425+00:00",
        "meta_object_name": "IRIDIUM 33 DEB",
        "meta_object_id": "1997-051CL",
        "meta_epoch": "2025-12-22T03:06:20.172096",
        "meta_mean_motion": 14.64936285,
        "meta_eccentricity": 0.0009107,
        "meta_inclination": 86.3848,
        "meta_ra_of_asc_node": 47.3707,
        "meta_arg_of_pericenter": 8.9651,
        "meta_mean_anomaly": 49.6074,
        "meta_ephemeris_type": 0,
        "meta_classification_type": "U",
        "meta_norad_cat_id": 34077,
        "meta_element_set_no": 999,
        "meta_rev_at_epoch": 88470,
        "meta_bstar": 0.0012796,
        "meta_mean_motion_dot": 6.872e-05,
        "meta_mean_motion_ddot": 0,
        "tle_line1": "1 34077U 97051CL  25356.12940014  .00006872  00000+0  12796-2 0  9994",
        "tle_line2": "2 34077  86.3848  47.3707 0009107   8.9651  49.6074 14.64936285884709"
      },
      "geometry": {
        "type": "Point",
        "coordinates": [
          -142.91687693499986,
          70.28697108293557
        ]
      }
    }
  ]
}